[Satellite]
VERSION=1.1
NAME=TY-1
NICKNAME=TY-1
TLE1=1 41844U 16066D   18018.74032193  .00001275  00000-0  57420-4 0  9994
TLE2=2 41844  97.4053  27.7396 0015017 195.2713 283.7777 15.22802875 66134
